{"type": "FeatureCollection", "features": [ {"type": "Feature", "properties": {"norad_id": 38779, "name": "GSAT-10 (GAGAN/PRN 128)", "group": "gnss", "lat": 0.062147352829842, "lon": -15.066773755122504, "alt_km": 35793.61611613346, "timestamp": "2025-12-20T11:30:28.619696+00:00", "meta": {"OBJECT_NAME": "GSAT-10 (GAGAN/PRN 128)", "OBJECT_ID": "2012-051B", "EPOCH": "2025-12-19T23:55:50.621952", "MEAN_MOTION": 1.00272312, "ECCENTRICITY": 0.0002427, "INCLINATION": 0.0741, "RA_OF_ASC_NODE": 264.848, "ARG_OF_PERICENTER": 218.7876, "MEAN_ANOMALY": 47.1912, "EPHEMERIS_TYPE": 0, "CLASSIFICATION_TYPE": "U", "NORAD_CAT_ID": 38779, "ELEMENT_SET_NO": 999, "REV_AT_EPOCH": 4830, "BSTAR": 0, "MEAN_MOTION_DOT": -1.41e-06, "MEAN_MOTION_DDOT": 0}, "tle": {"line1": "1 38779U 12051B   25353.99711368 -.00000141  00000+0  00000+0 0  9990", "line2": "2 38779   0.0741 264.8480 0002427 218.7876  47.1912  1.00272312 48301"}}, "geometry": {"type": "Point", "coordinates": [-15.066773755122504, 0.062147352829842]}}, {"type": "Feature", "properties": {"norad_id": 38833, "name": "GPS BIIF-3  (PRN 24)", "group": "gnss", "lat": 48.46150052324084, "lon": -85.62027758893005, "alt_km": 19855.072567718435, "timestamp": "2025-12-20T11:30:28.619708+00:00", "meta": {"OBJECT_NAME": "GPS BIIF-3  (PRN 24)", "OBJECT_ID": "2012-053A", "EPOCH": "2025-12-19T07:58:55.415712", "MEAN_MOTION": 2.0056508, "ECCENTRICITY": 0.0176, "INCLINATION": 53.559, "RA_OF_ASC_NODE": 150.9686, "ARG_OF_PERICENTER": 64.0969, "MEAN_ANOMALY": 297.6893, "EPHEMERIS_TYPE": 0, "CLASSIFICATION_TYPE": "U", "NORAD_CAT_ID": 38833, "ELEMENT_SET_NO": 999, "REV_AT_EPOCH": 9583, "BSTAR": 0, "MEAN_MOTION_DOT": 5.7e-07, "MEAN_MOTION_DDOT": 0}, "tle": {"line1": "1 38833U 12053A   25353.33258583  .00000057  00000+0  00000+0 0  9991", "line2": "2 38833  53.5590 150.9686 0176000  64.0969 297.6893  2.00565080 95832"}}, "geometry": {"type": "Point", "coordinates": [-85.62027758893005, 48.46150052324084]}}, {"type": "Feature", "properties": {"norad_id": 38857, "name": "GSAT0103 (GALILEO-FM3)", "group": "gnss", "lat": -41.60597027066208, "lon": 69.1897001314482, "alt_km": 23220.46962483555, "timestamp": "2025-12-20T11:30:28.619719+00:00", "meta": {"OBJECT_NAME": "GSAT0103 (GALILEO-FM3)", "OBJECT_ID": "2012-055A", "EPOCH": "2025-12-18T05:17:11.481792", "MEAN_MOTION": 1.70473412, "ECCENTRICITY": 0.00028558, "INCLINATION": 55.6954, "RA_OF_ASC_NODE": 106.5161, "ARG_OF_PERICENTER": 269.0808, "MEAN_ANOMALY": 90.8455, "EPHEMERIS_TYPE": 0, "CLASSIFICATION_TYPE": "U", "NORAD_CAT_ID": 38857, "ELEMENT_SET_NO": 999, "REV_AT_EPOCH": 8192, "BSTAR": 0, "MEAN_MOTION_DOT": -7e-08, "MEAN_MOTION_DDOT": 0}, "tle": {"line1": "1 38857U 12055A   25352.22027178 -.00000007  00000+0  00000+0 0  9996", "line2": "2 38857  55.6954 106.5161 0002855 269.0808  90.8455  1.70473412 81920"}}, "geometry": {"type": "Point", "coordinates": [69.1897001314482, -41.60597027066208]}}, {"type": "Feature", "properties": {"norad_id": 38953, "name": "BEIDOU-2 G6 (C02)", "group": "gnss", "lat": -3.976317868345678, "lon": -14.159115140720234, "alt_km": 35755.33071787263, "timestamp": "2025-12-20T11:30:28.619731+00:00", "meta": {"OBJECT_NAME": "BEIDOU-2 G6 (C02)", "OBJECT_ID": "2012-059A", "EPOCH": "2025-12-20T01:38:48.260832", "MEAN_MOTION": 1.00269041, "ECCENTRICITY": 0.0008244, "INCLINATION": 3.9668, "RA_OF_ASC_NODE": 75.4348, "ARG_OF_PERICENTER": 292.312, "MEAN_ANOMALY": 189.8125, "EPHEMERIS_TYPE": 0, "CLASSIFICATION_TYPE": "U", "NORAD_CAT_ID": 38953, "ELEMENT_SET_NO": 999, "REV_AT_EPOCH": 4811, "BSTAR": 0, "MEAN_MOTION_DOT": -1.53e-06, "MEAN_MOTION_DDOT": 0}, "tle": {"line1": "1 38953U 12059A   25354.06861413 -.00000153  00000+0  00000+0 0  9991", "line2": "2 38953   3.9668  75.4348 0008244 292.3120 189.8125  1.00269041 48111"}}, "geometry": {"type": "Point", "coordinates": [-14.159115140720234, -3.976317868345678]}}, {"type": "Feature", "properties": {"norad_id": 38977, "name": "LUCH 5B (SDCM/PRN 125)", "group": "gnss", "lat": -2.441799821723085, "lon": -114.60527215225697, "alt_km": 35758.157875921366, "timestamp": "2025-12-20T11:30:28.619745+00:00", "meta": {"OBJECT_NAME": "LUCH 5B (SDCM/PRN 125)", "OBJECT_ID": "2012-061A", "EPOCH": "2025-12-19T22:51:38.845152", "MEAN_MOTION": 1.00272415, "ECCENTRICITY": 0.0006643, "INCLINATION": 10.096, "RA_OF_ASC_NODE": 51.6367, "ARG_OF_PERICENTER": 195.1754, "MEAN_ANOMALY": 168.565, "EPHEMERIS_TYPE": 0, "CLASSIFICATION_TYPE": "U", "NORAD_CAT_ID": 38977, "ELEMENT_SET_NO": 999, "REV_AT_EPOCH": 4781, "BSTAR": 0, "MEAN_MOTION_DOT": -1.21e-06, "MEAN_MOTION_DDOT": 0}, "tle": {"line1": "1 38977U 12061A   25353.95253293 -.00000121  00000+0  00000+0 0  9993", "line2": "2 38977  10.0960  51.6367 0006643 195.1754 168.5650  1.00272415 47814"}}, "geometry": {"type": "Point", "coordinates": [-114.60527215225697, -2.441799821723085]}}, {"type": "Feature", "properties": {"norad_id": 39155, "name": "COSMOS 2485 (747)", "group": "gnss", "lat": -65.04638856579068, "lon": -0.9592698991586914, "alt_km": 19090.79253168228, "timestamp": "2025-12-20T11:30:28.619757+00:00", "meta": {"OBJECT_NAME": "COSMOS 2485 (747)", "OBJECT_ID": "2013-019A", "EPOCH": "2025-12-20T02:56:15.294336", "MEAN_MOTION": 2.13103192, "ECCENTRICITY": 0.0024792, "INCLINATION": 65.3175, "RA_OF_ASC_NODE": 79.6189, "ARG_OF_PERICENTER": 230.0872, "MEAN_ANOMALY": 129.7256, "EPHEMERIS_TYPE": 0, "CLASSIFICATION_TYPE": "U", "NORAD_CAT_ID": 39155, "ELEMENT_SET_NO": 999, "REV_AT_EPOCH": 9846, "BSTAR": 0, "MEAN_MOTION_DOT": -2e-07, "MEAN_MOTION_DDOT": 0}, "tle": {"line1": "1 39155U 13019A   25354.12239924 -.00000020  00000+0  00000+0 0  9999", "line2": "2 39155  65.3175  79.6189 0024792 230.0872 129.7256  2.13103192 98469"}}, "geometry": {"type": "Point", "coordinates": [-0.9592698991586914, -65.04638856579068]}}, {"type": "Feature", "properties": {"norad_id": 39166, "name": "GPS BIIF-4  (PRN 27)", "group": "gnss", "lat": -22.563120933496087, "lon": 113.37128823839946, "alt_km": 20527.860534355517, "timestamp": "2025-12-20T11:30:28.619769+00:00", "meta": {"OBJECT_NAME": "GPS BIIF-4  (PRN 27)", "OBJECT_ID": "2013-023A", "EPOCH": "2025-12-19T04:43:12.887616", "MEAN_MOTION": 2.00564719, "ECCENTRICITY": 0.0138305, "INCLINATION": 54.6464, "RA_OF_ASC_NODE": 276.3057, "ARG_OF_PERICENTER": 48.6894, "MEAN_ANOMALY": 312.5202, "EPHEMERIS_TYPE": 0, "CLASSIFICATION_TYPE": "U", "NORAD_CAT_ID": 39166, "ELEMENT_SET_NO": 999, "REV_AT_EPOCH": 9227, "BSTAR": 0, "MEAN_MOTION_DOT": -2.9e-07, "MEAN_MOTION_DDOT": 0}, "tle": {"line1": "1 39166U 13023A   25353.19667694 -.00000029  00000+0  00000+0 0  9990", "line2": "2 39166  54.6464 276.3057 0138305  48.6894 312.5202  2.00564719 92274"}}, "geometry": {"type": "Point", "coordinates": [113.37128823839946, -22.563120933496087]}}, {"type": "Feature", "properties": {"norad_id": 39199, "name": "IRNSS-1A", "group": "gnss", "lat": -33.05769235605417, "lon": -47.00274476355407, "alt_km": 35709.87335238587, "timestamp": "2025-12-20T11:30:28.619780+00:00", "meta": {"OBJECT_NAME": "IRNSS-1A", "OBJECT_ID": "2013-034A", "EPOCH": "2025-12-18T18:41:43.776960", "MEAN_MOTION": 1.00272479, "ECCENTRICITY": 0.0024472, "INCLINATION": 35.3183, "RA_OF_ASC_NODE": 66.4661, "ARG_OF_PERICENTER": 211.0525, "MEAN_ANOMALY": 145.3931, "EPHEMERIS_TYPE": 0, "CLASSIFICATION_TYPE": "U", "NORAD_CAT_ID": 39199, "ELEMENT_SET_NO": 999, "REV_AT_EPOCH": 4555, "BSTAR": 0, "MEAN_MOTION_DOT": 6.5e-07, "MEAN_MOTION_DDOT": 0}, "tle": {"line1": "1 39199U 13034A   25352.77897890  .00000065  00000+0  00000+0 0  9993", "line2": "2 39199  35.3183  66.4661 0024472 211.0525 145.3931  1.00272479 45557"}}, "geometry": {"type": "Point", "coordinates": [-47.00274476355407, -33.05769235605417]}}, {"type": "Feature", "properties": {"norad_id": 39533, "name": "GPS BIIF-5  (PRN 30)", "group": "gnss", "lat": -23.632788716460457, "lon": -4.585804115484533, "alt_km": 19982.235279903158, "timestamp": "2025-12-20T11:30:28.619792+00:00", "meta": {"OBJECT_NAME": "GPS BIIF-5  (PRN 30)", "OBJECT_ID": "2014-008A", "EPOCH": "2025-12-17T16:40:23.348352", "MEAN_MOTION": 2.00559499, "ECCENTRICITY": 0.0079919, "INCLINATION": 53.633, "RA_OF_ASC_NODE": 156.722, "ARG_OF_PERICENTER": 226.3473, "MEAN_ANOMALY": 132.9898, "EPHEMERIS_TYPE": 0, "CLASSIFICATION_TYPE": "U", "NORAD_CAT_ID": 39533, "ELEMENT_SET_NO": 999, "REV_AT_EPOCH": 8604, "BSTAR": 0, "MEAN_MOTION_DOT": 7.4e-07, "MEAN_MOTION_DDOT": 0}, "tle": {"line1": "1 39533U 14008A   25351.69471468  .00000074  00000+0  00000+0 0  9996", "line2": "2 39533  53.6330 156.7220 0079919 226.3473 132.9898  2.00559499 86041"}}, "geometry": {"type": "Point", "coordinates": [-4.585804115484533, -23.632788716460457]}}, {"type": "Feature", "properties": {"norad_id": 39617, "name": "ASTRA 5B (EGNOS/PRN 123)", "group": "gnss", "lat": -0.06708668768137477, "lon": -74.55791507761917, "alt_km": 35771.54988166047, "timestamp": "2025-12-20T11:30:28.619803+00:00", "meta": {"OBJECT_NAME": "ASTRA 5B (EGNOS/PRN 123)", "OBJECT_ID": "2014-011B", "EPOCH": "2025-12-19T19:52:38.507808", "MEAN_MOTION": 1.00270681, "ECCENTRICITY": 0.0003845, "INCLINATION": 0.0429, "RA_OF_ASC_NODE": 358.0682, "ARG_OF_PERICENTER": 262.2755, "MEAN_ANOMALY": 149.9909, "EPHEMERIS_TYPE": 0, "CLASSIFICATION_TYPE": "U", "NORAD_CAT_ID": 39617, "ELEMENT_SET_NO": 999, "REV_AT_EPOCH": 4286, "BSTAR": 0, "MEAN_MOTION_DOT": 1.61e-06, "MEAN_MOTION_DDOT": 0}, "tle": {"line1": "1 39617U 14011B   25353.82822347  .00000161  00000+0  00000+0 0  9993", "line2": "2 39617   0.0429 358.0682 0003845 262.2755 149.9909  1.00270681 42860"}}, "geometry": {"type": "Point", "coordinates": [-74.55791507761917, -0.06708668768137477]}}]}